{
  "type": "FeatureCollection",
  "features": [
    {
      "type": "Feature",
      "properties": {
        "norad_id": 29807,
        "name": "FENGYUN 1C DEB",
        "group": "fengyun-1c-debris",
        "lat": 59.84048233702473,
        "lon": -12.926984381245722,
        "alt_km": 887.8224036088741,
        "timestamp": "2025-12-24T03:53:29.918489+00:00",
        "meta_object_name": "FENGYUN 1C DEB",
        "meta_object_id": "1999-025CZ",
        "meta_epoch": "2025-12-23T00:19:41.007648",
        "meta_mean_motion": 14.08667078,
        "meta_eccentricity": 0.0079149,
        "meta_inclination": 98.7548,
        "meta_ra_of_asc_node": 1.3366,
        "meta_arg_of_pericenter": 302.6946,
        "meta_mean_anomaly": 56.6609,
        "meta_ephemeris_type": 0,
        "meta_classification_type": "U",
        "meta_norad_cat_id": 29807,
        "meta_element_set_no": 999,
        "meta_rev_at_epoch": 97239,
        "meta_bstar": 0.0002824792,
        "meta_mean_motion_dot": 4.57e-06,
        "meta_mean_motion_ddot": 0,
        "tle_line1": "1 29807U 99025CZ  25357.01366907  .00000457  00000+0  28248-3 0  9997",
        "tle_line2": "2 29807  98.7548   1.3366 0079149 302.6946  56.6609 14.08667078972397"
      },
      "geometry": {
        "type": "Point",
        "coordinates": [
          -12.926984381245722,
          59.84048233702473
        ]
      }
    },
    {
      "type": "Feature",
      "properties": {
        "norad_id": 29808,
        "name": "FENGYUN 1C DEB",
        "group": "fengyun-1c-debris",
        "lat": -72.42976539827211,
        "lon": -51.08356442685123,
        "alt_km": 496.651535026911,
        "timestamp": "2025-12-24T03:53:29.918499+00:00",
        "meta_object_name": "FENGYUN 1C DEB",
        "meta_object_id": "1999-025DA",
        "meta_epoch": "2025-12-22T05:46:03.246240",
        "meta_mean_motion": 15.27711753,
        "meta_eccentricity": 0.00200182,
        "meta_inclination": 99.0127,
        "meta_ra_of_asc_node": 276.5099,
        "meta_arg_of_pericenter": 82.358,
        "meta_mean_anomaly": 73.9024,
        "meta_ephemeris_type": 0,
        "meta_classification_type": "U",
        "meta_norad_cat_id": 29808,
        "meta_element_set_no": 999,
        "meta_rev_at_epoch": 98370,
        "meta_bstar": 0.016003032,
        "meta_mean_motion_dot": 0.00462684,
        "meta_mean_motion_ddot": 0,
        "tle_line1": "1 29808U 99025DA  25356.24031535  .00462684  00000+0  16003-1 0  9996",
        "tle_line2": "2 29808  99.0127 276.5099 0020018  82.3580  73.9024 15.27711753983703"
      },
      "geometry": {
        "type": "Point",
        "coordinates": [
          -51.08356442685123,
          -72.42976539827211
        ]
      }
    },
    {
      "type": "Feature",
      "properties": {
        "norad_id": 29809,
        "name": "FENGYUN 1C DEB",
        "group": "fengyun-1c-debris",
        "lat": -20.16691013036929,
        "lon": 138.9397438394281,
        "alt_km": 776.3366624628288,
        "timestamp": "2025-12-24T03:53:29.918510+00:00",
        "meta_object_name": "FENGYUN 1C DEB",
        "meta_object_id": "1999-025DB",
        "meta_epoch": "2025-12-23T04:01:29.256672",
        "meta_mean_motion": 14.46619076,
        "meta_eccentricity": 0.01155251,
        "meta_inclination": 98.8617,
        "meta_ra_of_asc_node": 321.1847,
        "meta_arg_of_pericenter": 318.6762,
        "meta_mean_anomaly": 106.8684,
        "meta_ephemeris_type": 0,
        "meta_classification_type": "U",
        "meta_norad_cat_id": 29809,
        "meta_element_set_no": 999,
        "meta_rev_at_epoch": 99618,
        "meta_bstar": 0.00032897531,
        "meta_mean_motion_dot": 1.235e-05,
        "meta_mean_motion_ddot": 0,
        "tle_line1": "1 29809U 99025DB  25357.16769973  .00001235  00000+0  32898-3 0  9996",
        "tle_line2": "2 29809  98.8617 321.1847 0115525 318.6762 106.8684 14.46619076996187"
      },
      "geometry": {
        "type": "Point",
        "coordinates": [
          138.9397438394281,
          -20.16691013036929
        ]
      }
    },
    {
      "type": "Feature",
      "properties": {
        "norad_id": 29810,
        "name": "FENGYUN 1C DEB",
        "group": "fengyun-1c-debris",
        "lat": -46.49304709967276,
        "lon": -154.21733712269585,
        "alt_km": 824.0701207103084,
        "timestamp": "2025-12-24T03:53:29.918520+00:00",
        "meta_object_name": "FENGYUN 1C DEB",
        "meta_object_id": "1999-025DC",
        "meta_epoch": "2025-12-23T14:06:02.275776",
        "meta_mean_motion": 14.29144268,
        "meta_eccentricity": 0.0066425,
        "meta_inclination": 99.2054,
        "meta_ra_of_asc_node": 35.0132,
        "meta_arg_of_pericenter": 347.7101,
        "meta_mean_anomaly": 165.4123,
        "meta_ephemeris_type": 0,
        "meta_classification_type": "U",
        "meta_norad_cat_id": 29810,
        "meta_element_set_no": 999,
        "meta_rev_at_epoch": 98532,
        "meta_bstar": 0.00023629,
        "meta_mean_motion_dot": 5.65e-06,
        "meta_mean_motion_ddot": 0,
        "tle_line1": "1 29810U 99025DC  25357.58752634  .00000565  00000+0  23629-3 0  9997",
        "tle_line2": "2 29810  99.2054  35.0132 0066425 347.7101 165.4123 14.29144268985321"
      },
      "geometry": {
        "type": "Point",
        "coordinates": [
          -154.21733712269585,
          -46.49304709967276
        ]
      }
    },
    {
      "type": "Feature",
      "properties": {
        "norad_id": 29812,
        "name": "FENGYUN 1C DEB",
        "group": "fengyun-1c-debris",
        "lat": 70.43612420010356,
        "lon": 161.64331693009157,
        "alt_km": 955.1681004132433,
        "timestamp": "2025-12-24T03:53:29.918530+00:00",
        "meta_object_name": "FENGYUN 1C DEB",
        "meta_object_id": "1999-025DE",
        "meta_epoch": "2025-12-22T12:25:28.951680",
        "meta_mean_motion": 14.02020328,
        "meta_eccentricity": 0.01437047,
        "meta_inclination": 98.3493,
        "meta_ra_of_asc_node": 184.545,
        "meta_arg_of_pericenter": 300.2704,
        "meta_mean_anomaly": 115.4819,
        "meta_ephemeris_type": 0,
        "meta_classification_type": "U",
        "meta_norad_cat_id": 29812,
        "meta_element_set_no": 999,
        "meta_rev_at_epoch": 96309,
        "meta_bstar": 0.0010836609,
        "meta_mean_motion_dot": 1.77e-05,
        "meta_mean_motion_ddot": 0,
        "tle_line1": "1 29812U 99025DE  25356.51769620  .00001770  00000+0  10837-2 0  9999",
        "tle_line2": "2 29812  98.3493 184.5450 0143704 300.2704 115.4819 14.02020328963090"
      },
      "geometry": {
        "type": "Point",
        "coordinates": [
          161.64331693009157,
          70.43612420010356
        ]
      }
    },
    {
      "type": "Feature",
      "properties": {
        "norad_id": 29813,
        "name": "FENGYUN 1C DEB",
        "group": "fengyun-1c-debris",
        "lat": 6.821970740045814,
        "lon": 16.615608613215905,
        "alt_km": 872.0948885910411,
        "timestamp": "2025-12-24T03:53:29.918540+00:00",
        "meta_object_name": "FENGYUN 1C DEB",
        "meta_object_id": "1999-025DF",
        "meta_epoch": "2025-12-22T07:52:48.258048",
        "meta_mean_motion": 14.09453922,
        "meta_eccentricity": 0.00122787,
        "meta_inclination": 98.7265,
        "meta_ra_of_asc_node": 15.8916,
        "meta_arg_of_pericenter": 193.9049,
        "meta_mean_anomaly": 233.4537,
        "meta_ephemeris_type": 0,
        "meta_classification_type": "U",
        "meta_norad_cat_id": 29813,
        "meta_element_set_no": 999,
        "meta_rev_at_epoch": 97395,
        "meta_bstar": 1.7284875e-05,
        "meta_mean_motion_dot": -1.2e-07,
        "meta_mean_motion_ddot": 0,
        "tle_line1": "1 29813U 99025DF  25356.32833632 -.00000012  00000+0  17285-4 0  9999",
        "tle_line2": "2 29813  98.7265  15.8916 0012278 193.9049 233.4537 14.09453922973956"
      },
      "geometry": {
        "type": "Point",
        "coordinates": [
          16.615608613215905,
          6.821970740045814
        ]
      }
    },
    {
      "type": "Feature",
      "properties": {
        "norad_id": 29815,
        "name": "FENGYUN 1C DEB",
        "group": "fengyun-1c-debris",
        "lat": 50.80523164005139,
        "lon": -3.5750493716097482,
        "alt_km": 587.6971614283102,
        "timestamp": "2025-12-24T03:53:29.918551+00:00",
        "meta_object_name": "FENGYUN 1C DEB",
        "meta_object_id": "1999-025DH",
        "meta_epoch": "2025-12-22T23:46:10.989408",
        "meta_mean_motion": 14.63774555,
        "meta_eccentricity": 0.01841598,
        "meta_inclination": 98.0548,
        "meta_ra_of_asc_node": 5.2799,
        "meta_arg_of_pericenter": 103.0816,
        "meta_mean_anomaly": 259.1012,
        "meta_ephemeris_type": 0,
        "meta_classification_type": "U",
        "meta_norad_cat_id": 29815,
        "meta_element_set_no": 999,
        "meta_rev_at_epoch": 1,
        "meta_bstar": 0.00048619,
        "meta_mean_motion_dot": 3.192e-05,
        "meta_mean_motion_ddot": 0,
        "tle_line1": "1 29815U 99025DH  25356.99040497  .00003192  00000+0  48619-3 0  9998",
        "tle_line2": "2 29815  98.0548   5.2799 0184159 103.0816 259.1012 14.63774555    18"
      },
      "geometry": {
        "type": "Point",
        "coordinates": [
          -3.5750493716097482,
          50.80523164005139
        ]
      }
    }
  ]
}